{
    "links": {
        "self": "http://www.neowsapp.com/rest/v1/neo/3825757?api_key=iIulBulltgU6a56xZRHN4H3l9WmuAYTsLGpBGhQ2"
    },
    "id": "3825757",
    "neo_reference_id": "3825757",
    "name": "(2018 OM)",
    "designation": "2018 OM",
    "nasa_jpl_url": "http://ssd.jpl.nasa.gov/sbdb.cgi?sstr=3825757",
    "absolute_magnitude_h": 23.8,
    "estimated_diameter": {
        "kilometers": {
            "estimated_diameter_min": 0.046190746,
            "estimated_diameter_max": 0.1032856481
        },
        "meters": {
            "estimated_diameter_min": 46.1907460282,
            "estimated_diameter_max": 103.2856480504
        },
        "miles": {
            "estimated_diameter_min": 0.0287015901,
            "estimated_diameter_max": 0.0641787064
        },
        "feet": {
            "estimated_diameter_min": 151.544447199,
            "estimated_diameter_max": 338.8636855496
        }
    },
    "is_potentially_hazardous_asteroid": false,
    "close_approach_data": [
        {
            "close_approach_date": "1917-01-08",
            "close_approach_date_full": "1917-Jan-08 22:25",
            "epoch_date_close_approach": -1671845700000,
            "relative_velocity": {
                "kilometers_per_second": "22.9901151941",
                "kilometers_per_hour": "82764.4146987913",
                "miles_per_hour": "51426.5886777018"
            },
            "miss_distance": {
                "astronomical": "0.1231654695",
                "lunar": "47.9113676355",
                "kilometers": "18425291.894749965",
                "miles": "11448945.488740917"
            },
            "orbiting_body": "Earth"
        },
        {
            "close_approach_date": "2018-07-15",
            "close_approach_date_full": "2018-Jul-15 06:20",
            "epoch_date_close_approach": 1531635600000,
            "relative_velocity": {
                "kilometers_per_second": "24.4380142765",
                "kilometers_per_hour": "87976.851395459",
                "miles_per_hour": "54665.3941351395"
            },
            "miss_distance": {
                "astronomical": "0.0311911847",
                "lunar": "12.1333708483",
                "kilometers": "4666134.793896589",
                "miles": "2899401.7138833682"
            },
            "orbiting_body": "Earth"
        },
        {
            "close_approach_date": "2023-03-04",
            "close_approach_date_full": "2023-Mar-04 07:06",
            "epoch_date_close_approach": 1677913560000,
            "relative_velocity": {
                "kilometers_per_second": "10.9246345407",
                "kilometers_per_hour": "39328.6843466057",
                "miles_per_hour": "24437.3150041451"
            },
            "miss_distance": {
                "astronomical": "1.9491260469",
                "lunar": "758.2100322441",
                "kilometers": "291585104.977760103",
                "miles": "181182582.6851833014"
            },
            "orbiting_body": "Juptr"
        },
        {
            "close_approach_date": "2035-01-13",
            "close_approach_date_full": "2035-Jan-13 07:12",
            "epoch_date_close_approach": 2052285120000,
            "relative_velocity": {
                "kilometers_per_second": "7.8063307734",
                "kilometers_per_hour": "28102.7907841194",
                "miles_per_hour": "17461.9813069435"
            },
            "miss_distance": {
                "astronomical": "1.5026057383",
                "lunar": "584.5136321987",
                "kilometers": "224786617.899457421",
                "miles": "139675927.5039015698"
            },
            "orbiting_body": "Juptr"
        }
    ],
    "orbital_data": {
        "orbit_id": "6",
        "orbit_determination_date": "2018-07-23 09:25:34",
        "first_observation_date": "2018-07-17",
        "last_observation_date": "2018-07-23",
        "data_arc_in_days": 6,
        "observations_used": 88,
        "orbit_uncertainty": "8",
        "minimum_orbit_intersection": ".00254399",
        "jupiter_tisserand_invariant": "3.024",
        "epoch_osculation": "2458318.5",
        "eccentricity": ".7827809275064684",
        "semi_major_axis": "2.352558672621815",
        "inclination": "13.89095511802322",
        "ascending_node_longitude": "294.6299860330626",
        "orbital_period": "1317.980916867145",
        "perihelion_distance": ".5110206128535244",
        "perihelion_argument": "261.7790527397383",
        "aphelion_distance": "4.194096732390105",
        "perihelion_time": "2458268.340397788475",
        "mean_anomaly": "13.70084844556913",
        "mean_motion": ".2731450777418871",
        "equinox": "J2000",
        "orbit_class": {
            "orbit_class_type": "APO",
            "orbit_class_description": "Near-Earth asteroid orbits which cross the Earth’s orbit similar to that of 1862 Apollo",
            "orbit_class_range": "a (semi-major axis) > 1.0 AU; q (perihelion) < 1.017 AU"
        }
    },
    "is_sentry_object": false
}